{"fetched_at":"2026-03-29T16:36:15Z","count":15609,"tles":[{"name":"ICEYE-X47","line1":"1 62389U 24247N   26087.65623224  .00006743  00000+0  39547-3 0  9990","line2":"2 62389  44.9961  66.8707 0000743 266.8949  93.1843 15.12454710 69985","category":"Other"}]}